POLYGON ((0 0, -4.585875312301564 0.000000000000000013877787807814457, -4.585875312301564 -5.503050374761877, 0 0))
POLYGON ((0 0, -4.199419949486945 -0.0000000000000015543122344752192, -2.0997099747434724 -2.519651969692169, 0 0))
POLYGON ((-2.099709974743476 -2.519651969692167, -4.199419949486948 0.0000000000000000971445146547012, -4.585875312301564 -0.0000000000000008881784197001252, -2.099709974743476 -2.519651969692167))
POLYGON ((-2.099709974743476 -2.519651969692167, -4.585875312301564 -0.0000000000000008881784197001252, -4.585875312301564 -5.503050374761877, -2.099709974743476 -2.519651969692167))
POLYGON ((-7.194748625428847 -8.633698350514615, -5.818219452678516 -6.98186334321422, -5.818219452678516 -0.000000000000000027755575615628914, -7.194748625428847 -8.633698350514615))
POLYGON ((-7.194748625428847 -8.633698350514615, -5.818219452678516 -0.000000000000000027755575615628914, -10 0, -7.194748625428847 -8.633698350514615))
POLYGON ((-7.194748625428847 -8.633698350514615, -10 0, -10 -3.8998790631935902, -7.194748625428847 -8.633698350514615))
POLYGON ((-9.385074335096935 -11.262089202116323, -7.194748625428847 -8.633698350514615, -10 -3.8998790631935965, -9.385074335096935 -11.262089202116323))
POLYGON ((-9.385074335096935 -11.262089202116323, -10 -3.8998790631935965, -10 -11.314760612837413, -9.385074335096935 -11.262089202116323))
POLYGON ((-10 0, -6.687744019011397 0.0000000000000017763568394002505, -10 -3.9747071771863194, -10 0))
POLYGON ((-10 -10.956570520400538, -9.130475433667115 -10.956570520400538, -5.818219452678516 -6.981863343214219, -10 -10.956570520400538))
POLYGON ((-5.818219452678516 -6.981863343214219, -5.818219452678516 -0.0000000000000002220446049250313, -6.687744019011401 -0.000000000000000027755575615628914, -5.818219452678516 -6.981863343214219))
POLYGON ((-10 -10.956570520400538, -6.687744019011401 -0.000000000000000027755575615628914, -10 -3.974707177186319, -10 -10.956570520400538))
POLYGON ((-10 -10.956570520400538, -5.818219452678516 -6.981863343214219, -6.687744019011401 -0.000000000000000027755575615628914, -10 -10.956570520400538))
POLYGON ((-9.130475433667115 -10.956570520400538, -10 -10.956570520400538, -10 -11.31476061283741, -9.130475433667115 -10.956570520400538))
POLYGON ((-9.130475433667115 -10.956570520400538, -10 -11.31476061283741, -9.385074335096935 -11.262089202116323, -9.130475433667115 -10.956570520400538))
POLYGON ((0 0, -0.40409476498007635 -0.0000000000000004440892098500626, -0.40409476498007635 -0.48491371797609206, 0 0))
POLYGON ((0 0, -3.6364389053570285 -0.00000000000000005551115123125783, -3.6364389053570285 -4.363726686428436, 0 0))
POLYGON ((-10 0, -4.759133588027627 0.00000000000000024186096754264796, -10 -9.741694865582776, -10 0))
POLYGON ((-8.616417253968105 -10.339700704761727, -3.6364389053570285 -4.363726686428436, -3.6364389053570285 0.0000000000000002220446049250313, -8.616417253968105 -10.339700704761727))
POLYGON ((-3.6364389053570285 0.0000000000000002220446049250313, -4.75913358802763 -0.00000000000000023440711544141375, -10 -9.741694865582776, -3.6364389053570285 0.0000000000000002220446049250313))
POLYGON ((-8.616417253968105 -10.339700704761727, -10 -9.741694865582776, -10 -10.45821137888418, -8.616417253968105 -10.339700704761727))
POLYGON ((-8.616417253968105 -10.339700704761727, -3.6364389053570285 0.0000000000000002220446049250313, -10 -9.741694865582776, -8.616417253968105 -10.339700704761727))
POLYGON ((-4.574057417916286 -5.488868901499545, -0.4040947649800799 -0.4849137179760972, -0.40409476498007635 0.00000000000000005551115123125783, -4.574057417916286 -5.488868901499545))
POLYGON ((-4.574057417916286 -5.488868901499545, -0.40409476498007635 0.00000000000000005551115123125783, -9.148114835832576 -0.0000000000000004440892098500626, -4.574057417916286 -5.488868901499545))
POLYGON ((-8.7440200708525 -10.492824085022999, -4.574057417916286 -5.488868901499545, -9.148114835832576 0.0000000000000003885780586188048, -8.7440200708525 -10.492824085022999))
POLYGON ((-8.7440200708525 -10.492824085022999, -9.148114835832576 0.0000000000000003885780586188048, -10 0, -8.7440200708525 -10.492824085022999))
POLYGON ((-8.7440200708525 -10.492824085022999, -10 0, -10 -10.492824085022999, -8.7440200708525 -10.492824085022999))
POLYGON ((-8.7440200708525 -10.492824085022999, -8.616417253968105 -10.339700704761727, -10 -10.45821137888418, -8.7440200708525 -10.492824085022999))
POLYGON ((-8.7440200708525 -10.492824085022999, -10 -10.45821137888418, -10 -10.492824085022999, -8.7440200708525 -10.492824085022999))
POLYGON ((0 0, -4.710830813911368 -0.000000000000000028218591957214147, -2.7530726936272174 -3.3036872323526607, 0 0))
POLYGON ((-2.7530726936272174 -3.30368723235266, -4.710830813911368 -0.00000000000000028164019326300396, -6.222314217658589 0, -2.7530726936272174 -3.30368723235266))
POLYGON ((-2.7530726936272174 -3.30368723235266, -6.222314217658589 0, -6.222314217658589 -7.466777061190307, -2.7530726936272174 -3.30368723235266))
POLYGON ((-9.454658358035548 -0.00000000000000011102230246251565, -2.0632320570342024 0.0000000000000006661338147750939, -9.454658358035548 -8.869711561201614, -9.454658358035548 -0.00000000000000011102230246251565))
POLYGON ((-9.454658358035548 -8.869711561201614, -7.391426301001346 -8.869711561201614, 0 0, -9.454658358035548 -8.869711561201614))
POLYGON ((-9.454658358035548 -8.869711561201614, 0 0, -2.0632320570342024 -0.00000000000000011102230246251565, -9.454658358035548 -8.869711561201614))
POLYGON ((-10 -8.916422757768359, -9.454658358035548 -8.869711561201614, -9.454658358035548 0.0000000000000006661338147750939, -10 -8.916422757768359))
POLYGON ((-10 -8.916422757768359, -9.454658358035548 0.0000000000000006661338147750939, -10 0, -10 -8.916422757768359))
POLYGON ((-7.0484048610891 -8.45808583330692, -6.222314217658585 -7.466777061190303, -6.222314217658589 0.00000000000000005551115123125783, -7.0484048610891 -8.45808583330692))
POLYGON ((-7.0484048610891 -8.45808583330692, -6.222314217658589 0.00000000000000005551115123125783, -10 0, -7.0484048610891 -8.45808583330692))
POLYGON ((-7.0484048610891 -8.45808583330692, -10 0, -10 -4.916171666613846, -7.0484048610891 -8.45808583330692))
POLYGON ((-7.874495504519615 -9.449394605423537, -7.048404861089104 -8.45808583330692, -10 -4.916171666613839, -7.874495504519615 -9.449394605423537))
POLYGON ((-7.874495504519615 -9.449394605423537, -10 -4.916171666613839, -10 -9.449394605423539, -7.874495504519615 -9.449394605423537))
POLYGON ((-7.391426301001346 -8.869711561201614, -7.659682824357628 -9.191619389229153, -9.454658358035548 -8.869711561201614, -7.391426301001346 -8.869711561201614))
POLYGON ((-7.874495504519611 -9.449394605423535, -7.659682824357628 -9.191619389229153, -9.454658358035548 -8.869711561201614, -7.874495504519611 -9.449394605423535))
POLYGON ((-7.874495504519611 -9.449394605423535, -9.454658358035548 -8.869711561201614, -10 -8.916422757768359, -7.874495504519611 -9.449394605423535))
POLYGON ((-7.874495504519611 -9.449394605423535, -10 -8.916422757768359, -10 -9.449394605423539, -7.874495504519611 -9.449394605423535))
POLYGON ((0 0, -4.040533670337101 -0.00000000000000011102230246251565, -4.040533670337101 -4.84864040440452, 0 0))
POLYGON ((0 0, -1.045504608523828 0, -0.522752304261914 -0.6273027651142971, 0 0))
POLYGON ((-4.040533670337101 -4.848640404404522, -0.522752304261914 -0.6273027651142975, -1.045504608523828 0.0000000000000002220446049250313, -4.040533670337101 -4.848640404404522))
POLYGON ((-4.040533670337101 -4.848640404404522, -1.045504608523828 0.0000000000000002220446049250313, -4.040533670337101 0, -4.040533670337101 -4.848640404404522))
POLYGON ((-5.791955405759467 -6.950346486911359, -5.272877810714061 -6.327453372856871, -5.272877810714061 -0.00000000000000011102230246251565, -5.791955405759467 -6.950346486911359))
POLYGON ((-5.791955405759467 -6.950346486911359, -5.272877810714061 -0.00000000000000011102230246251565, -9.91071614687511 -0.00000000000000006828710355858221, -5.791955405759467 -6.950346486911359))
POLYGON ((-6.617908843033145 -7.941490611639774, -5.791955405759467 -6.950346486911358, -9.91071614687511 -0.00000000000000006828710355858221, -6.617908843033145 -7.941490611639774))
POLYGON ((-6.617908843033145 -7.941490611639774, -9.91071614687511 -0.00000000000000006828710355858221, -10 0, -6.617908843033145 -7.941490611639774))
POLYGON ((-6.617908843033145 -7.941490611639774, -10 0, -10 -8.231183370605772, -6.617908843033145 -7.941490611639774))
POLYGON ((-10 0, -8.750976076045596 0.0000000000000008881784197001252, -10 -1.4988287087452823, -10 0))
POLYGON ((-6.521901734668457 -7.82628208160215, -5.272877810714061 -6.3274533728568745, -5.272877810714061 -0.0000000000000004440892098500626, -6.521901734668457 -7.82628208160215))
POLYGON ((-5.272877810714061 -0.0000000000000004440892098500626, -8.7509760760456 -0.00000000000000011102230246251565, -10 -1.498828708745278, -5.272877810714061 -0.0000000000000004440892098500626))
POLYGON ((-6.521901734668457 -7.82628208160215, -10 -1.498828708745278, -10 -7.826282081602152, -6.521901734668457 -7.82628208160215))
POLYGON ((-6.521901734668457 -7.82628208160215, -5.272877810714061 -0.0000000000000004440892098500626, -10 -1.498828708745278, -6.521901734668457 -7.82628208160215))
POLYGON ((-6.617908843033149 -7.941490611639775, -6.521901734668461 -7.82628208160215, -10 -7.826282081602152, -6.617908843033149 -7.941490611639775))
POLYGON ((-6.617908843033149 -7.941490611639775, -10 -7.826282081602152, -10 -8.231183370605772, -6.617908843033149 -7.941490611639775))
POLYGON ((0 0, -3.091097263392573 0, -3.091097263392573 -3.70931671607109, 0 0))
POLYGON ((-9.858753123015621 0.00000000000000033306690738754696, -5.8978339700690725 0.000000000000000699585284752136, -9.858753123015621 -7.362535646224612, -9.858753123015621 0.00000000000000033306690738754696))
POLYGON ((-9.858753123015621 -7.362535646224612, -5.849251761904316 -7.019102114285179, -3.091097263392573 -3.7093167160710876, -9.858753123015621 -7.362535646224612))
POLYGON ((-9.858753123015621 -7.362535646224612, -3.091097263392573 -3.7093167160710876, -3.091097263392573 0, -9.858753123015621 -7.362535646224612))
POLYGON ((-9.858753123015621 -7.362535646224612, -3.091097263392573 0, -5.8978339700690725 -0.0000000000000003478837471115035, -9.858753123015621 -7.362535646224612))
POLYGON ((0 0, -5.994199494869463 0, -2.9970997474347314 -3.596519696921678, 0 0))
POLYGON ((-9.858753123015621 -7.362535646224612, -6.1354463718538454 -7.362535646224611, -2.9970997474347314 -3.5965196969216784, -9.858753123015621 -7.362535646224612))
POLYGON ((-9.858753123015621 -7.362535646224612, -2.9970997474347314 -3.5965196969216784, -5.994199494869463 0.00000000000000033306690738754696, -9.858753123015621 -7.362535646224612))
POLYGON ((-9.858753123015621 -7.362535646224612, -5.994199494869463 0.00000000000000033306690738754696, -9.858753123015621 0, -9.858753123015621 -7.362535646224612))
POLYGON ((-5.849251761904316 -7.019102114285179, -6.135446371853842 -7.362535646224611, -9.858753123015621 -7.362535646224612, -5.849251761904316 -7.019102114285179))
POLYGON ((0 0, -2.310486812802594 -0.00000000000000040264760482034874, -1.3502794739578334 -1.620335368749402, 0 0))
POLYGON ((-5.676972575694126 -6.319106166625149, -5.234326097001251 -6.2811913164015, -1.3502794739578334 -1.6203353687494015, -5.676972575694126 -6.319106166625149))
POLYGON ((-5.676972575694126 -6.319106166625149, -1.3502794739578334 -1.6203353687494015, -2.310486812802594 0.00000000000000004144160502971387, -5.676972575694126 -6.319106166625149))
POLYGON ((-5.676972575694126 -6.319106166625149, -2.310486812802594 0.00000000000000004144160502971387, -5.676972575694126 0.0000000000000002220446049250313, -5.676972575694126 -6.319106166625149))
POLYGON ((-8.909316716071093 -0.0000000000000002220446049250313, -4.126464114068405 -0.0000000000000002220446049250313, -8.909316716071093 -5.739423122403227, -8.909316716071093 -0.0000000000000002220446049250313))
POLYGON ((-8.909316716071093 -5.739423122403227, -4.782852602002691 -5.7394231224032275, 0 0, -8.909316716071093 -5.739423122403227))
POLYGON ((-8.909316716071093 -5.739423122403227, 0 0, -4.126464114068405 -0.0000000000000002220446049250313, -8.909316716071093 -5.739423122403227))
POLYGON ((-10 -5.832845515536718, -8.909316716071093 -5.739423122403227, -8.909316716071093 0.00000000000000011102230246251565, -10 -5.832845515536718))
POLYGON ((-10 -5.832845515536718, -8.909316716071093 0.00000000000000011102230246251565, -10 0, -10 -5.832845515536718))
POLYGON ((-5.676972575694126 -6.319106166625149, -5.676972575694126 0.0000000000000002220446049250313, -10 0, -5.676972575694126 -6.319106166625149))
POLYGON ((-5.676972575694126 -6.319106166625149, -10 0, -10 -1.1314732574581032, -5.676972575694126 -6.319106166625149))
POLYGON ((-10 -1.131473257458104, -10 -6.319106166625149, -5.676972575694126 -6.319106166625149, -10 -1.131473257458104))
POLYGON ((-8.909316716071093 -5.739423122403227, -5.676972575694126 -6.319106166625149, -5.234326097001251 -6.281191316401501, -8.909316716071093 -5.739423122403227))
POLYGON ((-8.909316716071093 -5.739423122403227, -5.234326097001251 -6.281191316401501, -4.782852602002688 -5.739423122403226, -8.909316716071093 -5.739423122403227))
POLYGON ((-5.676972575694126 -6.319106166625149, -8.909316716071093 -5.739423122403227, -10 -5.832845515536716, -5.676972575694126 -6.319106166625149))
POLYGON ((-5.676972575694126 -6.319106166625149, -10 -5.832845515536716, -10 -6.319106166625149, -5.676972575694126 -6.319106166625149))
POLYGON ((-3.4951920283726423 -4.194230434047169, -1.8536393500631974 -2.2243672200758393, -0.6569675580966958 0.00000000000000033806643028120706, -3.4951920283726423 -4.194230434047169))
POLYGON ((-3.4951920283726423 -4.194230434047169, -0.6569675580966958 0.00000000000000033806643028120706, -3.495192028372646 0, -3.4951920283726423 -4.194230434047169))
POLYGON ((0 0, -0.6569675580966958 -0.0000000000000007094026015824325, -1.8536393500632258 -2.2243672200758806, 0 0))
POLYGON ((0 0, -3.495192028372646 0, -3.495192028372646 -4.194230434047174, 0 0))
POLYGON ((-4.727536168749598 0, -7.510372145766333 0.00000000000000019123882521937802, -4.727536168749598 -4.695993642803764, -4.727536168749598 0))
POLYGON ((-4.727536168749598 -4.695993642803764, -7.510372145766333 -0.0000000000000004427161164217168, -10 0, -4.727536168749598 -4.695993642803764))
POLYGON ((-4.727536168749598 -4.695993642803764, -10 0, -10 -5.14760612837413, -4.727536168749598 -4.695993642803764))
POLYGON ((-10 -4.695993642803764, -4.727536168749598 -4.695993642803764, -4.727536168749598 0, -10 -4.695993642803764))
POLYGON ((-10 -4.695993642803764, -4.727536168749598 0, -10 0, -10 -4.695993642803764))
POLYGON ((-10 -5.14760612837413, -10 -4.695993642803764, -4.727536168749598 -4.695993642803764, -10 -5.14760612837413))
POLYGON ((0 0, -2.5457556214281176 -0.0000000000000002220446049250313, -2.5457556214281176 -3.0549067457137413, 0 0))
POLYGON ((-9.313411481051169 0, -7.036534352110518 0.000000000000000014907704202468427, -9.313411481051169 -4.232247207426226, -9.313411481051169 0))
POLYGON ((-9.313411481051169 -4.232247207426226, -3.0820862698405236 -3.698503523808631, -2.5457556214281176 -3.0549067457137395, -9.313411481051169 -4.232247207426226))
POLYGON ((-9.313411481051169 -4.232247207426226, -2.5457556214281176 -3.0549067457137395, -2.5457556214281176 0.00000000000000011102230246251565, -9.313411481051169 -4.232247207426226))
POLYGON ((-9.313411481051169 -4.232247207426226, -2.5457556214281176 0.00000000000000011102230246251565, -7.036534352110518 0.000000000000000458996914052531, -9.313411481051169 -4.232247207426226))
POLYGON ((0 0, -2.8402841539063566 -0.00000000000000033306690738754696, -1.42014207695318 -1.7041704923438146, 0 0))
POLYGON ((-9.313411481051169 -4.232247207426226, -3.5268726728551876 -4.232247207426225, -1.42014207695318 -1.7041704923438137, -9.313411481051169 -4.232247207426226))
POLYGON ((-9.313411481051169 -4.232247207426226, -1.42014207695318 -1.7041704923438137, -2.8402841539063566 0, -9.313411481051169 -4.232247207426226))
POLYGON ((-9.313411481051169 -4.232247207426226, -2.8402841539063566 0, -9.313411481051169 -0.00000000000000033306690738754696, -9.313411481051169 -4.232247207426226))
POLYGON ((-3.0820862698405236 -3.6985035238086295, -3.5268726728551876 -4.232247207426225, -9.313411481051169 -4.232247207426226, -3.0820862698405236 -3.6985035238086295))
POLYGON ((-4.585875312301564 -11.536253564622461, 0 -3.0120527031015403, 0 0, -4.585875312301564 -11.536253564622461))
POLYGON ((-4.585875312301564 -11.536253564622461, 0 0, -4.585875312301564 -5.5030503747618775, -4.585875312301564 -11.536253564622461))
POLYGON ((0 -3.0120527031015394, 0 -11.143450766046767, -4.585875312301564 -11.536253564622461, 0 -3.0120527031015394))
POLYGON ((0 0, 0 -5.039303939384338, -2.0997099747434724 -2.519651969692169, 0 0))
POLYGON ((-2.099709974743476 -2.5196519696921684, -4.585875312301564 -5.503050374761877, -4.585875312301564 -11.536253564622461, -2.099709974743476 -2.5196519696921684))
POLYGON ((-2.099709974743476 -2.5196519696921684, -4.585875312301564 -11.536253564622461, 0 -11.536253564622461, -2.099709974743476 -2.5196519696921684))
POLYGON ((-2.099709974743476 -2.5196519696921684, 0 -11.536253564622461, 0 -5.039303939384336, -2.099709974743476 -2.5196519696921684))
POLYGON ((0 -11.143450766046767, 0 -11.536253564622461, -4.585875312301564 -11.536253564622461, 0 -11.143450766046767))
POLYGON ((-5.818219452678516 -6.981863343214219, -7.194748625428847 -8.633698350514615, -5.818219452678516 -10.956570520400538, -5.818219452678516 -6.981863343214219))
POLYGON ((-7.194748625428847 -8.633698350514617, -9.385074335096938 -11.262089202116325, -5.818219452678516 -10.956570520400538, -7.194748625428847 -8.633698350514617))
POLYGON ((-9.130475433667115 -10.956570520400536, -5.818219452678516 -6.98186334321422, -5.818219452678516 -10.956570520400538, -9.130475433667115 -10.956570520400536))
POLYGON ((-9.385074335096938 -11.262089202116325, -9.130475433667115 -10.95657052040054, -5.818219452678516 -10.956570520400538, -9.385074335096938 -11.262089202116325))
POLYGON ((-0.40409476498007635 -0.4849137179760921, -0.40409476498007635 -10.492824085022999, 0 -10.45821137888418, -0.40409476498007635 -0.4849137179760921))
POLYGON ((-0.40409476498007635 -0.4849137179760921, 0 -10.45821137888418, 0 0, -0.40409476498007635 -0.4849137179760921))
POLYGON ((-3.6364389053570285 -9.913141040801076, 0 -5.549414354372642, 0 0, -3.6364389053570285 -9.913141040801076))
POLYGON ((-3.6364389053570285 -9.913141040801076, 0 0, -3.6364389053570285 -4.363726686428434, -3.6364389053570285 -9.913141040801076))
POLYGON ((0 -5.549414354372637, 0 -9.913141040801076, -3.6364389053570285 -9.913141040801076, 0 -5.549414354372637))
POLYGON ((-8.616417253968109 -10.339700704761729, -3.6364389053570285 -4.363726686428436, -3.6364389053570285 -9.913141040801076, -8.616417253968109 -10.339700704761729))
POLYGON ((-0.40409476498007635 -0.4849137179760916, -4.574057417916286 -5.488868901499545, -0.40409476498007635 -10.492824085022999, -0.40409476498007635 -0.4849137179760916))
POLYGON ((-4.574057417916286 -5.488868901499544, -8.7440200708525 -10.492824085022999, -0.40409476498007635 -10.492824085022999, -4.574057417916286 -5.488868901499544))
POLYGON ((-3.6364389053570285 -9.913141040801076, -0.40409476498007635 -10.492824085022999, 0 -10.45821137888418, -3.6364389053570285 -9.913141040801076))
POLYGON ((-3.6364389053570285 -9.913141040801076, 0 -10.45821137888418, 0 -9.913141040801076, -3.6364389053570285 -9.913141040801076))
POLYGON ((-0.40409476498007635 -10.492824085022999, -3.6364389053570285 -9.913141040801076, -8.616417253968105 -10.339700704761725, -0.40409476498007635 -10.492824085022999))
POLYGON ((-0.40409476498007635 -10.492824085022999, -8.616417253968105 -10.339700704761725, -8.7440200708525 -10.492824085022999, -0.40409476498007635 -10.492824085022999))
POLYGON ((0 0, 0 -7.949455784371174, -2.7530726936272174 -3.3036872323526607, 0 0))
POLYGON ((-2.7530726936272174 -3.3036872323526607, -6.222314217658585 -7.466777061190303, -6.222314217658589 -9.449394605423537, -2.7530726936272174 -3.3036872323526607))
POLYGON ((-2.7530726936272174 -3.3036872323526607, -6.222314217658589 -9.449394605423537, 0 -8.916422757768359, -2.7530726936272174 -3.3036872323526607))
POLYGON ((-2.7530726936272174 -3.3036872323526607, 0 -8.916422757768359, 0 -7.949455784371178, -2.7530726936272174 -3.3036872323526607))
POLYGON ((0 0, 0 -8.869711561201614, -7.391426301001346 -8.869711561201616, 0 0))
POLYGON ((-6.222314217658589 -7.466777061190307, -7.0484048610891 -8.45808583330692, -6.222314217658589 -9.449394605423537, -6.222314217658589 -7.466777061190307))
POLYGON ((-7.048404861089104 -8.45808583330692, -7.874495504519615 -9.449394605423539, -6.222314217658589 -9.449394605423537, -7.048404861089104 -8.45808583330692))
POLYGON ((-7.659682824357628 -9.191619389229153, -6.222314217658589 -9.449394605423537, 0 -8.916422757768359, -7.659682824357628 -9.191619389229153))
POLYGON ((-7.659682824357628 -9.191619389229153, 0 -8.916422757768359, 0 -8.869711561201614, -7.659682824357628 -9.191619389229153))
POLYGON ((-7.659682824357628 -9.191619389229153, 0 -8.869711561201614, -7.391426301001346 -8.869711561201616, -7.659682824357628 -9.191619389229153))
POLYGON ((-7.874495504519615 -9.449394605423535, -7.659682824357628 -9.191619389229153, -6.222314217658589 -9.449394605423537, -7.874495504519615 -9.449394605423535))
POLYGON ((-4.040533670337101 -8.405965125824073, 0 -0.8954424342670955, 0 0, -4.040533670337101 -8.405965125824073))
POLYGON ((-4.040533670337101 -8.405965125824073, 0 0, -4.040533670337101 -4.848640404404522, -4.040533670337101 -8.405965125824073))
POLYGON ((0 -0.8954424342670984, 0 -8.059873523815124, -4.040533670337101 -8.405965125824073, 0 -0.8954424342670984))
POLYGON ((0 0, 0 -1.2546055302285941, -0.522752304261914 -0.6273027651142973, 0 0))
POLYGON ((-0.522752304261914 -0.6273027651142975, -4.040533670337101 -4.848640404404522, -4.040533670337101 -8.405965125824073, -0.522752304261914 -0.6273027651142975))
POLYGON ((-0.522752304261914 -0.6273027651142975, -4.040533670337101 -8.405965125824073, 0 -8.405965125824073, -0.522752304261914 -0.6273027651142975))
POLYGON ((-0.522752304261914 -0.6273027651142975, 0 -8.405965125824073, 0 -1.2546055302285954, -0.522752304261914 -0.6273027651142975))
POLYGON ((0 -8.059873523815124, 0 -8.405965125824073, -4.040533670337101 -8.405965125824073, 0 -8.059873523815124))
POLYGON ((-5.272877810714061 -6.327453372856873, -5.791955405759467 -6.950346486911357, -5.272877810714061 -7.826282081602151, -5.272877810714061 -6.327453372856873))
POLYGON ((-5.791955405759467 -6.950346486911357, -6.617908843033142 -7.941490611639773, -5.272877810714061 -7.826282081602151, -5.791955405759467 -6.950346486911357))
POLYGON ((-6.521901734668461 -7.826282081602152, -5.272877810714061 -6.327453372856873, -5.272877810714061 -7.826282081602151, -6.521901734668461 -7.826282081602152))
POLYGON ((-6.617908843033142 -7.941490611639773, -6.521901734668461 -7.826282081602152, -5.272877810714061 -7.826282081602151, -6.617908843033142 -7.941490611639773))
POLYGON ((-3.091097263392573 -3.7093167160710876, -3.091097263392573 -6.782852602002689, 0 -3.0735358859316015, -3.091097263392573 -3.7093167160710876))
POLYGON ((-3.091097263392573 -3.7093167160710876, 0 -3.0735358859316015, 0 0, -3.091097263392573 -3.7093167160710876))
POLYGON ((0 -3.0735358859315998, 0 -6.782852602002689, -3.091097263392573 -6.782852602002689, 0 -3.0735358859315998))
POLYGON ((-5.849251761904313 -7.019102114285179, -3.091097263392573 -3.709316716071086, -3.091097263392573 -6.782852602002689, -5.849251761904313 -7.019102114285179))
POLYGON ((0 0, 0 -7.1930393938433586, -2.9970997474347314 -3.5965196969216784, 0 0))
POLYGON ((-6.135446371853842 -7.362535646224612, 0 -7.362535646224613, 0 -7.193039393843353, -6.135446371853842 -7.362535646224612))
POLYGON ((-6.135446371853842 -7.362535646224612, 0 -7.193039393843353, -2.9970997474347314 -3.596519696921678, -6.135446371853842 -7.362535646224612))
POLYGON ((0 -6.782852602002689, 0 -7.337204674000969, -3.091097263392573 -6.782852602002689, 0 -6.782852602002689))
POLYGON ((-3.091097263392573 -6.782852602002689, -5.849251761904316 -7.019102114285178, -6.135446371853842 -7.362535646224612, -3.091097263392573 -6.782852602002689))
POLYGON ((-3.091097263392573 -6.782852602002689, -6.135446371853842 -7.362535646224612, 0 -7.362535646224613, -3.091097263392573 -6.782852602002689))
POLYGON ((-3.091097263392573 -6.782852602002689, 0 -7.362535646224613, 0 -7.337204674000969, -3.091097263392573 -6.782852602002689))
POLYGON ((0 0, 0 -3.898911568742338, -1.3502794739578334 -1.6203353687494026, 0 0))
POLYGON ((-5.234326097001251 -6.2811913164015, 0 -5.832845515536716, 0 -3.8989115687423377, -5.234326097001251 -6.2811913164015))
POLYGON ((-5.234326097001251 -6.2811913164015, 0 -3.8989115687423377, -1.3502794739578334 -1.6203353687494022, -5.234326097001251 -6.2811913164015))
POLYGON ((0 0, 0 -5.739423122403226, -4.782852602002688 -5.739423122403227, 0 0))
POLYGON ((-4.782852602002688 -5.739423122403227, -5.234326097001251 -6.2811913164015, 0 -5.832845515536716, -4.782852602002688 -5.739423122403227))
POLYGON ((-4.782852602002688 -5.739423122403227, 0 -5.832845515536716, 0 -5.739423122403226, -4.782852602002688 -5.739423122403227))
POLYGON ((-3.495192028372646 -4.194230434047175, -1.8536393500631902 -2.224367220075826, -3.495192028372646 -5.275676687025687, -3.495192028372646 -4.194230434047175))
POLYGON ((-3.495192028372646 -5.275676687025687, 0 -4.976296281583483, 0 0, -3.495192028372646 -5.275676687025687))
POLYGON ((-3.495192028372646 -5.275676687025687, 0 0, -1.8536393500632116 -2.224367220075858, -3.495192028372646 -5.275676687025687))
POLYGON ((-3.495192028372646 -4.194230434047173, -3.495192028372646 -5.275676687025687, 0 -5.275676687025687, -3.495192028372646 -4.194230434047173))
POLYGON ((-3.495192028372646 -4.194230434047173, 0 -5.275676687025687, 0 0, -3.495192028372646 -4.194230434047173))
POLYGON ((0 -4.976296281583483, 0 -5.275676687025687, -3.495192028372646 -5.275676687025687, 0 -4.976296281583483))
POLYGON ((-2.5457556214281176 -3.054906745713742, -2.5457556214281176 -3.6525641632043016, 0 -0.5976574174905578, -2.5457556214281176 -3.054906745713742))
POLYGON ((-2.5457556214281176 -3.054906745713742, 0 -0.5976574174905578, 0 0, -2.5457556214281176 -3.054906745713742))
POLYGON ((0 -0.5976574174905565, 0 -3.6525641632043016, -2.5457556214281176 -3.6525641632043016, 0 -0.5976574174905565))
POLYGON ((-3.0820862698405236 -3.698503523808631, -2.5457556214281176 -3.0549067457137413, -2.5457556214281176 -3.6525641632043016, -3.0820862698405236 -3.698503523808631))
POLYGON ((0 0, 0 -3.4083409846876274, -1.42014207695318 -1.7041704923438141, 0 0))
POLYGON ((-3.5268726728551876 -4.232247207426225, 0 -4.232247207426226, 0 -3.4083409846876247, -3.5268726728551876 -4.232247207426225))
POLYGON ((-3.5268726728551876 -4.232247207426225, 0 -3.4083409846876247, -1.42014207695318 -1.7041704923438141, -3.5268726728551876 -4.232247207426225))
POLYGON ((0 -3.6525641632043016, 0 -4.1091156021554855, -2.5457556214281176 -3.6525641632043016, 0 -3.6525641632043016))
POLYGON ((-2.5457556214281176 -3.6525641632043016, -3.5268726728551876 -4.232247207426225, 0 -4.232247207426226, -2.5457556214281176 -3.6525641632043016))
POLYGON ((-2.5457556214281176 -3.6525641632043016, 0 -4.232247207426226, 0 -4.109115602155487, -2.5457556214281176 -3.6525641632043016))
POLYGON ((-2.5457556214281176 -3.6525641632043016, 0 -4.109115602155487, -3.0820862698405236 -3.69850352380863, -2.5457556214281176 -3.6525641632043016))
